NORAD_CAT_ID,OBJECT_NAME,OBJECT_TYPE,EPOCH,MEAN_MOTION,ECCENTRICITY,INCLINATION,RA_OF_ASC_NODE,ARG_OF_PERICENTER,MEAN_ANOMALY,BSTAR,MEAN_MOTION_DOT,MEAN_MOTION_DDOT,TLE_LINE0,TLE_LINE1,TLE_LINE2,SEMIMAJOR_AXIS,PERIOD,APOGEE,PERIGEE,DECAYED
54178.0,STARLINK-5164,PAYLOAD,2023-05-21 15:15:00,15.08825853,9.02e-05,53.2162,276.5937,76.2459,283.8634,-4.0802e-05,-9.37e-06,0.0,0 STARLINK-5164,1 54178U 22141X   23141.63542777 -.00000937  00000-0 -40802-4 0  9996,2 54178  53.2162 276.5937 0000902  76.2459 283.8634 15.08825853 31417,6917.924,95.438,540.413,539.165,0.0
54178.0,STARLINK-5164,PAYLOAD,2023-05-22 02:22:42,15.08837284,9.3e-05,53.2157,274.512,71.1173,288.9919,9.9759e-05,1.3e-05,0.0,0 STARLINK-5164,1 54178U 22141X   23142.09909938  .00001300  00000-0  99759-4 0  9991,2 54178  53.2157 274.5120 0000930  71.1173 288.9919 15.08837284 31481,6917.889,95.438,540.397,539.11,0.0
54178.0,STARLINK-5164,PAYLOAD,2023-05-22 08:44:14,15.0884496,9.35e-05,53.2162,273.3218,63.4016,296.7072,0.00020153,2.921e-05,0.0,0 STARLINK-5164,1 54178U 22141X   23142.36405613  .00002921  00000-0  20153-3 0  9993,2 54178  53.2162 273.3218 0000935  63.4016 296.7072 15.08844960 31528,6917.865,95.437,540.377,539.083,0.0
54178.0,STARLINK-5164,PAYLOAD,2023-05-22 15:05:46,15.08859077,9.55e-05,53.2158,272.1317,68.9849,291.1245,0.00056097,8.656e-05,0.0,0 STARLINK-5164,1 54178U 22141X   23142.62901236  .00008656  00000-0  56097-3 0  9991,2 54178  53.2158 272.1317 0000955  68.9849 291.1245 15.08859077 31566,6917.822,95.436,540.348,539.026,0.0
54178.0,STARLINK-5164,PAYLOAD,2023-05-23 11:45:48,15.08843792,0.000111,53.2156,268.2657,26.2605,333.8443,0.00015086,2.114e-05,0.0,0 STARLINK-5164,1 54178U 22141X   23143.49013921  .00002114  00000-0  15086-3 0  9998,2 54178  53.2156 268.2657 0001110  26.2605 333.8443 15.08843792 31693,6917.869,95.437,540.502,538.966,0.0
54178.0,STARLINK-5164,PAYLOAD,2023-05-23 14:56:34,15.0884561,7.37e-05,53.216,267.6685,92.9389,267.1687,0.0001751,2.501e-05,0.0,0 STARLINK-5164,1 54178U 22141X   23143.62261638  .00002501  00000-0  17510-3 0  9997,2 54178  53.2160 267.6685 0000737  92.9389 267.1687 15.08845610 31718,6917.863,95.437,540.238,539.218,0.0
54178.0,STARLINK-5164,PAYLOAD,2023-05-24 14:47:21,15.08843654,9.27e-05,53.2163,263.2099,72.3968,287.7125,7.1012e-05,8.43e-06,0.0,0 STARLINK-5164,1 54178U 22141X   23144.61621830  .00000843  00000-0  71012-4 0  9996,2 54178  53.2163 263.2099 0000927  72.3968 287.7125 15.08843654 31865,6917.869,95.437,540.376,539.093,0.0
54178.0,STARLINK-5164,PAYLOAD,2023-05-25 17:48:54,15.08847986,9.78e-05,53.2169,258.1569,94.267,265.8434,0.00025302,3.742e-05,0.0,0 STARLINK-5164,1 54178U 22141X   23145.74229576  .00003742  00000-0  25302-3 0  9993,2 54178  53.2169 258.1569 0000978  94.2670 265.8434 15.08847986 32037,6917.856,95.437,540.398,539.044,0.0
54178.0,STARLINK-5164,PAYLOAD,2023-05-26 12:53:32,15.08844547,8.95e-05,53.2152,254.5859,103.5868,256.5223,0.00010358,1.361e-05,0.0,0 STARLINK-5164,1 54178U 22141X   23146.53717593  .00001361  00000-0  10358-3 0  9992,2 54178  53.2152 254.5859 0000895 103.5868 256.5223 15.08844547 32158,6917.866,95.437,540.351,539.112,0.0
54178.0,STARLINK-5164,PAYLOAD,2023-05-26 14:28:55,15.08845681,8.93e-05,53.2154,254.2886,98.582,261.5274,0.00011102,1.48e-05,0.0,0 STARLINK-5164,1 54178U 22141X   23146.60341545  .00001480  00000-0  11102-3 0  9990,2 54178  53.2154 254.2886 0000893  98.5820 261.5274 15.08845681 32169,6917.863,95.437,540.346,539.11,0.0
54178.0,STARLINK-5164,PAYLOAD,2023-05-27 11:08:56,15.0883524,8.42e-05,53.215,250.4258,89.3682,270.7407,-1.647e-05,-5.5e-06,0.0,0 STARLINK-5164,1 54178U 22141X   23147.46454121 -.00000550  00000-0 -16470-4 0  9993,2 54178  53.2150 250.4258 0000842  89.3682 270.7407 15.08835240 32298,6917.895,95.438,540.342,539.177,0.0
54178.0,STARLINK-5164,PAYLOAD,2023-05-27 14:19:42,15.08838112,8.6e-05,53.2152,249.8306,89.6059,270.5032,2.466e-06,-2.48e-06,0.0,0 STARLINK-5164,1 54178U 22141X   23147.59702014 -.00000248  00000-0  24660-5 0  9998,2 54178  53.2152 249.8306 0000860  89.6059 270.5032 15.08838112 32313,6917.886,95.438,540.346,539.156,0.0
54178.0,STARLINK-5164,PAYLOAD,2023-05-27 23:52:01,15.08840773,7.86e-05,53.2151,248.0468,96.2866,263.8215,1.2779e-05,-8.4e-07,0.0,0 STARLINK-5164,1 54178U 22141X   23147.99445898 -.00000084  00000-0  12779-4 0  9991,2 54178  53.2151 248.0468 0000786  96.2866 263.8215 15.08840773 32379,6917.878,95.438,540.287,539.199,0.0
54178.0,STARLINK-5164,PAYLOAD,2023-05-28 15:45:52,15.08848811,8.54e-05,53.2152,245.0726,86.0934,274.0155,0.00019046,2.745e-05,0.0,0 STARLINK-5164,1 54178U 22141X   23148.65685602  .00002745  00000-0  19046-3 0  9992,2 54178  53.2152 245.0726 0000854  86.0934 274.0155 15.08848811 32472,6917.853,95.437,540.309,539.128,0.0
54178.0,STARLINK-5164,PAYLOAD,2023-05-29 10:50:30,15.08841597,9.24e-05,53.2155,241.5049,84.3046,275.8051,0.0001372,1.897e-05,0.0,0 STARLINK-5164,1 54178U 22141X   23149.45173989  .00001897  00000-0  13720-3 0  9991,2 54178  53.2155 241.5049 0000924  84.3046 275.8051 15.08841597 32598,6917.876,95.437,540.38,539.101,0.0
54178.0,STARLINK-5164,PAYLOAD,2023-05-29 12:25:52,15.08852756,8.37e-05,53.2151,241.2069,81.4089,278.6998,-0.00018222,-3.188e-05,0.0,0 STARLINK-5164,1 54178U 22141X   23149.51797318 -.00003188  00000-0 -18222-3 0  9995,2 54178  53.2151 241.2069 0000837  81.4089 278.6998 15.08852756 32603,6917.841,95.437,540.285,539.127,0.0
54178.0,STARLINK-5164,PAYLOAD,2023-05-29 23:33:35,15.08839187,9.54e-05,53.2154,239.1262,75.2291,284.8807,5.6106e-05,6.05e-06,0.0,0 STARLINK-5164,1 54178U 22141X   23149.98166153  .00000605  00000-0  56106-4 0  9996,2 54178  53.2154 239.1262 0000954  75.2291 284.8807 15.08839187 32671,6917.883,95.438,540.408,539.088,0.0
54178.0,STARLINK-5164,PAYLOAD,2023-05-30 12:16:40,15.08839554,8.41e-05,53.216,236.747,90.0087,270.1001,-3.5939e-05,-8.6e-06,0.0,0 STARLINK-5164,1 54178U 22141X   23150.51158441 -.00000860  00000-0 -35939-4 0  9994,2 54178  53.2160 236.7470 0000841  90.0087 270.1001 15.08839554 32756,6917.882,95.438,540.329,539.165,0.0
54178.0,STARLINK-5164,PAYLOAD,2023-05-31 10:32:04,15.08842734,9.31e-05,53.2162,232.5847,74.9272,285.1823,7.8009e-05,9.54e-06,0.0,0 STARLINK-5164,1 54178U 22141X   23151.43893952  .00000954  00000-0  78009-4 0  9996,2 54178  53.2162 232.5847 0000931  74.9272 285.1823 15.08842734 32894,6917.872,95.437,540.381,539.093,0.0
54178.0,STARLINK-5164,PAYLOAD,2023-05-31 12:07:27,15.08843648,9.35e-05,53.2162,232.2874,74.2307,285.8788,8.5139e-05,1.068e-05,0.0,0 STARLINK-5164,1 54178U 22141X   23151.50517869  .00001068  00000-0  85139-4 0  9993,2 54178  53.2162 232.2874 0000935  74.2307 285.8788 15.08843648 32901,6917.869,95.437,540.381,539.087,0.0
54178.0,STARLINK-5164,PAYLOAD,2023-05-31 15:18:13,15.08847347,8.59e-05,53.2157,231.691,83.2824,276.8266,0.00010291,1.351e-05,0.0,0 STARLINK-5164,1 54178U 22141X   23151.63765501  .00001351  00000-0  10291-3 0  9996,2 54178  53.2157 231.6910 0000859  83.2824 276.8266 15.08847347 32921,6917.858,95.437,540.317,539.129,0.0
54178.0,STARLINK-5164,PAYLOAD,2023-06-01 10:22:51,15.08839348,9e-05,53.2167,228.119,95.8728,264.2367,9.8381e-05,1.278e-05,0.0,0 STARLINK-5164,1 54178U 22141X   23152.43254082  .00001278  00000-0  98381-4 0  9997,2 54178  53.2167 228.1190 0000900  95.8728 264.2367 15.08839348 33041,6917.882,95.438,540.37,539.125,0.0
54178.0,STARLINK-5164,PAYLOAD,2023-06-01 21:30:33,15.08839576,8.01e-05,53.2166,226.0379,80.5651,279.5431,6.8989e-05,8.1e-06,0.0,0 STARLINK-5164,1 54178U 22141X   23152.89622168  .00000810  00000-0  68989-4 0  9993,2 54178  53.2166 226.0379 0000801  80.5651 279.5431 15.08839576 33114,6917.882,95.438,540.301,539.193,0.0
54178.0,STARLINK-5164,PAYLOAD,2023-06-02 11:49:02,15.08840584,8.02e-05,53.2154,223.3651,80.3723,279.736,-2.0969e-05,-6.21e-06,0.0,0 STARLINK-5164,1 54178U 22141X   23153.49238565 -.00000621  00000-0 -20969-4 0  9992,2 54178  53.2154 223.3651 0000802  80.3723 279.7360 15.08840584 33207,6917.879,95.438,540.298,539.189,0.0
54178.0,STARLINK-5164,PAYLOAD,2023-06-02 21:21:20,15.08839869,7e-05,53.2154,221.5811,85.7977,274.3095,-1.6922e-05,-5.57e-06,0.0,0 STARLINK-5164,1 54178U 22141X   23153.88982576 -.00000557  00000-0 -16922-4 0  9995,2 54178  53.2154 221.5811 0000700  85.7977 274.3095 15.08839869 33268,6917.881,95.438,540.23,539.262,0.0
54178.0,STARLINK-5164,PAYLOAD,2023-06-03 10:04:26,15.08836788,8.4e-05,53.2154,219.2023,84.5922,275.5166,2.2531e-05,7.1e-07,0.0,0 STARLINK-5164,1 54178U 22141X   23154.41974889  .00000071  00000-0  22531-4 0  9995,2 54178  53.2154 219.2023 0000840  84.5922 275.5166 15.08836788 33347,6917.89,95.438,540.336,539.174,0.0
54178.0,STARLINK-5164,PAYLOAD,2023-06-03 13:15:12,15.08838946,8.59e-05,53.2155,218.6075,80.285,279.8239,3.738e-05,3.07e-06,0.0,0 STARLINK-5164,1 54178U 22141X   23154.55222708  .00000307  00000-0  37380-4 0  9996,2 54178  53.2155 218.6075 0000859  80.2850 279.8239 15.08838946 33369,6917.884,95.438,540.343,539.154,0.0
54178.0,STARLINK-5164,PAYLOAD,2023-06-03 21:12:08,15.0883607,8.94e-05,53.2164,217.1212,83.3113,276.7981,4.4006e-05,4.13e-06,0.0,0 STARLINK-5164,1 54178U 22141X   23154.88342938  .00000413  00000-0  44006-4 0  9991,2 54178  53.2164 217.1212 0000894  83.3113 276.7981 15.08836070 33413,6917.892,95.438,540.376,539.139,0.0
54178.0,STARLINK-5164,PAYLOAD,2023-06-04 13:05:59,15.08840448,8.48e-05,53.2158,214.1469,78.8676,281.2411,9.5244e-05,1.228e-05,0.0,0 STARLINK-5164,1 54178U 22141X   23155.54582619  .00001228  00000-0  95244-4 0  9992,2 54178  53.2158 214.1469 0000848  78.8676 281.2411 15.08840448 33513,6917.879,95.438,540.331,539.157,0.0
54178.0,STARLINK-5164,PAYLOAD,2023-06-04 16:16:44,15.08852431,6.78e-05,53.2158,213.5486,113.8213,246.285,0.00017679,2.528e-05,0.0,0 STARLINK-5164,1 54178U 22141X   23155.67829399  .00002528  00000-0  17679-3 0  9994,2 54178  53.2158 213.5486 0000678 113.8213 246.2850 15.08852431 33538,6917.842,95.437,540.176,539.238,0.0
